[{"OBJECT_NAME":"CAPELLA-16 (ACADIA-6)","OBJECT_ID":"2025-188D","EPOCH":"2026-03-09T15:15:25.509888","MEAN_MOTION":14.93468543,"ECCENTRICITY":0.0004619,"INCLINATION":97.7411,"RA_OF_ASC_NODE":145.2573,"ARG_OF_PERICENTER":195.5059,"MEAN_ANOMALY":164.602,"EPHEMERIS_TYPE":0,"CLASSIFICATION_TYPE":"U","NORAD_CAT_ID":65318,"ELEMENT_SET_NO":999,"REV_AT_EPOCH":2905,"BSTAR":0.00090451,"MEAN_MOTION_DOT":9.467e-5,"MEAN_MOTION_DDOT":0},{"OBJECT_NAME":"COSMOS 434 DEB","OBJECT_ID":"1971-069C","EPOCH":"2026-03-09T06:41:44.243520","MEAN_MOTION":14.88540959,"ECCENTRICITY":0.00573215,"INCLINATION":49.5268,"RA_OF_ASC_NODE":92.2564,"ARG_OF_PERICENTER":343.1408,"MEAN_ANOMALY":16.762,"EPHEMERIS_TYPE":0,"CLASSIFICATION_TYPE":"U","NORAD_CAT_ID":5426,"ELEMENT_SET_NO":999,"REV_AT_EPOCH":87280,"BSTAR":0.00069493899,"MEAN_MOTION_DOT":6.493e-5,"MEAN_MOTION_DDOT":0}]
